{"type": "FeatureCollection", "features": [ {"type": "Feature", "properties": {"norad_id": 29892, "name": "FENGYUN 1C DEB", "group": "fengyun-1c-debris", "lat": 4.977642520472134, "lon": -54.304089610902906, "alt_km": 903.1440818103829, "timestamp": "2025-12-03T20:47:58.495932+00:00", "meta": {"OBJECT_NAME": "FENGYUN 1C DEB", "OBJECT_ID": "1999-025GN", "EPOCH": "2025-12-03T08:29:50.562816", "MEAN_MOTION": 14.31887599, "ECCENTRICITY": 0.0190864, "INCLINATION": 99.1811, "RA_OF_ASC_NODE": 124.3465, "ARG_OF_PERICENTER": 324.5548, "MEAN_ANOMALY": 90.6206, "EPHEMERIS_TYPE": 0, "CLASSIFICATION_TYPE": "U", "NORAD_CAT_ID": 29892, "ELEMENT_SET_NO": 999, "REV_AT_EPOCH": 96515, "BSTAR": 0.003688, "MEAN_MOTION_DOT": 0.00012036, "MEAN_MOTION_DDOT": 0}, "tle": {"line1": "1 29892U 99025GN  25337.35405744  .00012036  00000+0  36880-2 0  9995", "line2": "2 29892  99.1811 124.3465 0190864 324.5548  90.6206 14.31887599965159"}}, "geometry": {"type": "Point", "coordinates": [-54.304089610902906, 4.977642520472134]}}, {"type": "Feature", "properties": {"norad_id": 29893, "name": "FENGYUN 1C DEB", "group": "fengyun-1c-debris", "lat": 2.266525910228348, "lon": -104.87746171811658, "alt_km": 841.0707261788093, "timestamp": "2025-12-03T20:47:58.495943+00:00", "meta": {"OBJECT_NAME": "FENGYUN 1C DEB", "OBJECT_ID": "1999-025GP", "EPOCH": "2025-12-03T06:08:45.882240", "MEAN_MOTION": 13.79453063, "ECCENTRICITY": 0.0173334, "INCLINATION": 98.5539, "RA_OF_ASC_NODE": 74.2293, "ARG_OF_PERICENTER": 179.0088, "MEAN_ANOMALY": 208.1536, "EPHEMERIS_TYPE": 0, "CLASSIFICATION_TYPE": "U", "NORAD_CAT_ID": 29893, "ELEMENT_SET_NO": 999, "REV_AT_EPOCH": 95009, "BSTAR": 0.00033803, "MEAN_MOTION_DOT": 3.51e-06, "MEAN_MOTION_DDOT": 0}, "tle": {"line1": "1 29893U 99025GP  25337.25608660  .00000351  00000+0  33803-3 0  9997", "line2": "2 29893  98.5539  74.2293 0173334 179.0088 208.1536 13.79453063950092"}}, "geometry": {"type": "Point", "coordinates": [-104.87746171811658, 2.266525910228348]}}, {"type": "Feature", "properties": {"norad_id": 29894, "name": "FENGYUN 1C DEB", "group": "fengyun-1c-debris", "lat": 20.625316041365455, "lon": -144.24786990072334, "alt_km": 959.3716516328222, "timestamp": "2025-12-03T20:47:58.495953+00:00", "meta": {"OBJECT_NAME": "FENGYUN 1C DEB", "OBJECT_ID": "1999-025GQ", "EPOCH": "2025-12-03T09:42:16.170048", "MEAN_MOTION": 13.80955609, "ECCENTRICITY": 0.0168905, "INCLINATION": 99.4869, "RA_OF_ASC_NODE": 31.6796, "ARG_OF_PERICENTER": 69.6625, "MEAN_ANOMALY": 310.3171, "EPHEMERIS_TYPE": 0, "CLASSIFICATION_TYPE": "U", "NORAD_CAT_ID": 29894, "ELEMENT_SET_NO": 999, "REV_AT_EPOCH": 94948, "BSTAR": 0.00070349, "MEAN_MOTION_DOT": 7.83e-06, "MEAN_MOTION_DDOT": 0}, "tle": {"line1": "1 29894U 99025GQ  25337.40435382  .00000783  00000+0  70349-3 0  9999", "line2": "2 29894  99.4869  31.6796 0168905  69.6625 310.3171 13.80955609949480"}}, "geometry": {"type": "Point", "coordinates": [-144.24786990072334, 20.625316041365455]}}, {"type": "Feature", "properties": {"norad_id": 29895, "name": "FENGYUN 1C DEB", "group": "fengyun-1c-debris", "lat": 65.63793527781627, "lon": -71.94603828541467, "alt_km": 906.7804954575886, "timestamp": "2025-12-03T20:47:58.495963+00:00", "meta": {"OBJECT_NAME": "FENGYUN 1C DEB", "OBJECT_ID": "1999-025GR", "EPOCH": "2025-12-03T12:04:31.257120", "MEAN_MOTION": 14.08099952, "ECCENTRICITY": 0.0299694, "INCLINATION": 99.886, "RA_OF_ASC_NODE": 85.005, "ARG_OF_PERICENTER": 9.0501, "MEAN_ANOMALY": 58.2394, "EPHEMERIS_TYPE": 0, "CLASSIFICATION_TYPE": "U", "NORAD_CAT_ID": 29895, "ELEMENT_SET_NO": 999, "REV_AT_EPOCH": 95394, "BSTAR": 0.0020881, "MEAN_MOTION_DOT": 5.321e-05, "MEAN_MOTION_DDOT": 0}, "tle": {"line1": "1 29895U 99025GR  25337.50313955  .00005321  00000+0  20881-2 0  9990", "line2": "2 29895  99.8860  85.0050 0299694   9.0501  58.2394 14.08099952953945"}}, "geometry": {"type": "Point", "coordinates": [-71.94603828541467, 65.63793527781627]}}, {"type": "Feature", "properties": {"norad_id": 29896, "name": "FENGYUN 1C DEB", "group": "fengyun-1c-debris", "lat": 75.08612565880762, "lon": 88.40912019709103, "alt_km": 845.7406972178533, "timestamp": "2025-12-03T20:47:58.495974+00:00", "meta": {"OBJECT_NAME": "FENGYUN 1C DEB", "OBJECT_ID": "1999-025GS", "EPOCH": "2025-12-02T16:28:55.441920", "MEAN_MOTION": 13.65350262, "ECCENTRICITY": 0.02393328, "INCLINATION": 99.4222, "RA_OF_ASC_NODE": 228.6942, "ARG_OF_PERICENTER": 127.7889, "MEAN_ANOMALY": 298.395, "EPHEMERIS_TYPE": 0, "CLASSIFICATION_TYPE": "U", "NORAD_CAT_ID": 29896, "ELEMENT_SET_NO": 999, "REV_AT_EPOCH": 93905, "BSTAR": 0.00062723295, "MEAN_MOTION_DOT": 5.79e-06, "MEAN_MOTION_DDOT": 0}, "tle": {"line1": "1 29896U 99025GS  25336.68675280  .00000579  00000+0  62723-3 0  9993", "line2": "2 29896  99.4222 228.6942 0239332 127.7889 298.3950 13.65350262939056"}}, "geometry": {"type": "Point", "coordinates": [88.40912019709103, 75.08612565880762]}}, {"type": "Feature", "properties": {"norad_id": 29897, "name": "FENGYUN 1C DEB", "group": "fengyun-1c-debris", "lat": -70.74160218329328, "lon": -131.03187224293828, "alt_km": 1176.0411458271165, "timestamp": "2025-12-03T20:47:58.495984+00:00", "meta": {"OBJECT_NAME": "FENGYUN 1C DEB", "OBJECT_ID": "1999-025GT", "EPOCH": "2025-12-03T02:27:55.814976", "MEAN_MOTION": 13.57132747, "ECCENTRICITY": 0.02963377, "INCLINATION": 98.6289, "RA_OF_ASC_NODE": 202.5365, "ARG_OF_PERICENTER": 164.0265, "MEAN_ANOMALY": 350.1997, "EPHEMERIS_TYPE": 0, "CLASSIFICATION_TYPE": "U", "NORAD_CAT_ID": 29897, "ELEMENT_SET_NO": 999, "REV_AT_EPOCH": 92809, "BSTAR": 0.0022144693, "MEAN_MOTION_DOT": 2.062e-05, "MEAN_MOTION_DDOT": 0}, "tle": {"line1": "1 29897U 99025GT  25337.10272934  .00002062  00000+0  22145-2 0  9993", "line2": "2 29897  98.6289 202.5365 0296337 164.0265 350.1997 13.57132747928098"}}, "geometry": {"type": "Point", "coordinates": [-131.03187224293828, -70.74160218329328]}}, {"type": "Feature", "properties": {"norad_id": 29898, "name": "FENGYUN 1C DEB", "group": "fengyun-1c-debris", "lat": -79.79701256182541, "lon": 24.91878294189712, "alt_km": 851.4523814978975, "timestamp": "2025-12-03T20:47:58.495995+00:00", "meta": {"OBJECT_NAME": "FENGYUN 1C DEB", "OBJECT_ID": "1999-025GU", "EPOCH": "2025-12-03T11:28:25.889088", "MEAN_MOTION": 13.70217466, "ECCENTRICITY": 0.042744, "INCLINATION": 98.2219, "RA_OF_ASC_NODE": 331.1385, "ARG_OF_PERICENTER": 214.3285, "MEAN_ANOMALY": 301.7536, "EPHEMERIS_TYPE": 0, "CLASSIFICATION_TYPE": "U", "NORAD_CAT_ID": 29898, "ELEMENT_SET_NO": 999, "REV_AT_EPOCH": 93034, "BSTAR": 0.002891, "MEAN_MOTION_DOT": 4.834e-05, "MEAN_MOTION_DDOT": 0}, "tle": {"line1": "1 29898U 99025GU  25337.47807742  .00004834  00000+0  28910-2 0  9990", "line2": "2 29898  98.2219 331.1385 0427440 214.3285 301.7536 13.70217466930340"}}, "geometry": {"type": "Point", "coordinates": [24.91878294189712, -79.79701256182541]}}, {"type": "Feature", "properties": {"norad_id": 29899, "name": "FENGYUN 1C DEB", "group": "fengyun-1c-debris", "lat": -75.13919097291294, "lon": 169.7362601498381, "alt_km": 1391.0937797338884, "timestamp": "2025-12-03T20:47:58.496005+00:00", "meta": {"OBJECT_NAME": "FENGYUN 1C DEB", "OBJECT_ID": "1999-025GV", "EPOCH": "2025-12-02T09:18:02.992896", "MEAN_MOTION": 13.37487819, "ECCENTRICITY": 0.03536515, "INCLINATION": 98.6612, "RA_OF_ASC_NODE": 133.4158, "ARG_OF_PERICENTER": 104.9635, "MEAN_ANOMALY": 259.0924, "EPHEMERIS_TYPE": 0, "CLASSIFICATION_TYPE": "U", "NORAD_CAT_ID": 29899, "ELEMENT_SET_NO": 999, "REV_AT_EPOCH": 91946, "BSTAR": 0.00023856557, "MEAN_MOTION_DOT": 1.47e-06, "MEAN_MOTION_DDOT": 0}, "tle": {"line1": "1 29899U 99025GV  25336.38753464  .00000147  00000+0  23857-3 0  9990", "line2": "2 29899  98.6612 133.4158 0353651 104.9635 259.0924 13.37487819919468"}}, "geometry": {"type": "Point", "coordinates": [169.7362601498381, -75.13919097291294]}}, {"type": "Feature", "properties": {"norad_id": 29901, "name": "FENGYUN 1C DEB", "group": "fengyun-1c-debris", "lat": -62.00412392926087, "lon": -46.85775893663642, "alt_km": 1009.1307599874826, "timestamp": "2025-12-03T20:47:58.496016+00:00", "meta": {"OBJECT_NAME": "FENGYUN 1C DEB", "OBJECT_ID": "1999-025GX", "EPOCH": "2025-12-03T10:40:46.627104", "MEAN_MOTION": 13.33245362, "ECCENTRICITY": 0.0379275, "INCLINATION": 98.7445, "RA_OF_ASC_NODE": 149.61, "ARG_OF_PERICENTER": 308.5215, "MEAN_ANOMALY": 75.78, "EPHEMERIS_TYPE": 0, "CLASSIFICATION_TYPE": "U", "NORAD_CAT_ID": 29901, "ELEMENT_SET_NO": 999, "REV_AT_EPOCH": 91795, "BSTAR": 0.00051119, "MEAN_MOTION_DOT": 3.38e-06, "MEAN_MOTION_DDOT": 0}, "tle": {"line1": "1 29901U 99025GX  25337.44498411  .00000338  00000+0  51119-3 0  9994", "line2": "2 29901  98.7445 149.6100 0379275 308.5215  75.7800 13.33245362917958"}}, "geometry": {"type": "Point", "coordinates": [-46.85775893663642, -62.00412392926087]}}, {"type": "Feature", "properties": {"norad_id": 29904, "name": "FENGYUN 1C DEB", "group": "fengyun-1c-debris", "lat": 27.336588899150883, "lon": -160.10532654516234, "alt_km": 887.2638801202338, "timestamp": "2025-12-03T20:47:58.496026+00:00", "meta": {"OBJECT_NAME": "FENGYUN 1C DEB", "OBJECT_ID": "1999-025HA", "EPOCH": "2025-12-03T08:27:34.817184", "MEAN_MOTION": 14.4441957, "ECCENTRICITY": 0.0208331, "INCLINATION": 99.0431, "RA_OF_ASC_NODE": 14.6253, "ARG_OF_PERICENTER": 346.6326, "MEAN_ANOMALY": 12.9393, "EPHEMERIS_TYPE": 0, "CLASSIFICATION_TYPE": "U", "NORAD_CAT_ID": 29904, "ELEMENT_SET_NO": 999, "REV_AT_EPOCH": 98928, "BSTAR": 0.0005997, "MEAN_MOTION_DOT": 2.636e-05, "MEAN_MOTION_DDOT": 0}, "tle": {"line1": "1 29904U 99025HA  25337.35248631  .00002636  00000+0  59970-3 0  9990", "line2": "2 29904  99.0431  14.6253 0208331 346.6326  12.9393 14.44419570989282"}}, "geometry": {"type": "Point", "coordinates": [-160.10532654516234, 27.336588899150883]}}]}